OBJECT_NAME,OBJECT_ID,EPOCH,MEAN_MOTION,ECCENTRICITY,INCLINATION,RA_OF_ASC_NODE,ARG_OF_PERICENTER,MEAN_ANOMALY,EPHEMERIS_TYPE,CLASSIFICATION_TYPE,NORAD_CAT_ID,ELEMENT_SET_NO,REV_AT_EPOCH,BSTAR,MEAN_MOTION_DOT,MEAN_MOTION_DDOT
POLYITAN-1,2014-033AJ,2026-07-19T12:58:50.636640,15.34312602,.0007515,98.0935,229.8891,51.2798,308.9114,0,U,40042,999,65855,.30475147E-3,.10044E-3,0
TIGRISAT,2014-033AK,2026-07-19T09:16:52.563936,14.85256102,.00482823,97.7871,349.6693,330.3860,29.4622,0,U,40043,999,65040,.89667824E-4,.729E-5,0
AEROCUBE 6A,2014-033AM,2026-07-19T09:57:19.939968,14.98371075,.00361133,97.7266,7.0301,266.3491,93.3602,0,U,40045,999,65144,.28084923E-3,.3331E-4,0
AEROCUBE 6B,2014-033AN,2026-07-19T09:15:34.139520,14.99819606,.0038159,97.7208,6.8556,255.3149,104.3843,0,U,40046,999,65158,.2069966E-3,.2538E-4,0
CANX-4,2014-034C,2026-07-19T05:42:26.347680,14.81314925,.0011369,98.3077,76.7214,268.2732,91.7177,0,U,40055,999,64927,.56964472E-4,.387E-5,0
CANX-5,2014-034D,2026-07-19T05:39:38.620224,14.81332261,.00113728,98.3080,76.7649,268.5748,91.4161,0,U,40056,999,64008,.56525204E-4,.384E-5,0
UKUBE-1,2014-037F,2026-07-19T11:47:26.674944,15.13988015,.00031794,98.4250,207.1701,80.5519,279.6069,0,U,40074,999,65344,.24720383E-3,.4408E-4,0
BRITE-PL2 (HEWELIUSZ),2014-049B,2026-07-19T13:47:14.580384,14.94692881,.00138949,97.9121,312.8303,7.9686,352.1752,0,U,40119,999,64628,.71560275E-4,.718E-5,0
AEROCUBE 5C,2015-058B,2026-07-19T06:54:14.663808,14.91591998,.01326294,64.7651,162.7146,50.8967,310.3850,0,U,40965,999,37044,.16701494E-3,.1808E-4,0
AEROCUBE 7,2015-058C,2026-07-19T11:00:57.896352,14.95938135,.01223523,64.7617,143.7158,49.1341,312.0299,0,U,40966,999,37078,.22241947E-3,.272E-4,0
FOX-1A (AO-85),2015-058D,2026-07-19T08:17:48.771168,14.91103340,.01327083,64.7726,179.0327,44.2393,316.9236,0,U,40967,999,11836,.15936763E-3,.1693E-4,0
SINOD-D 1,2015-058E,2026-07-19T07:11:12.969024,14.96111905,.01214206,64.7741,158.3324,40.6040,320.4051,0,U,40968,999,12146,.22960319E-3,.2821E-4,0
SNAP-3 ALICE,2015-058G,2026-07-19T09:30:55.423584,15.68019638,.0025635,64.7500,351.9022,345.7057,14.3364,0,U,40970,999,12192,.79478003E-3,.90987E-3,0
LMRST-SAT,2015-058H,2026-07-19T09:01:57.827136,14.90718261,.01342292,64.7734,175.3371,46.2288,314.9837,0,U,40971,999,11835,.15640856E-3,.1646E-4,0
SNAP-3 EDDIE,2015-058J,2026-07-19T11:42:16.453152,15.69509626,.00266699,64.7408,342.0568,348.0691,11.9824,0,U,40972,999,12408,.86490091E-3,.105694E-2,0
PROPCUBE 3,2015-058K,2026-07-19T06:22:21.535392,14.94435958,.01260998,64.7679,152.2960,47.4574,313.7103,0,U,40973,999,11959,.20161738E-3,.2367E-4,0
BISONSAT,2015-058L,2026-07-19T14:35:03.484608,15.17000920,.00825035,64.7580,68.7524,33.9898,326.6472,0,U,40974,999,12053,.33962014E-3,.7151E-4,0
SNAP-3 JIMI,2015-058M,2026-07-19T04:55:27.186528,15.02642517,.0108163,64.7645,118.4420,42.7825,318.1647,0,U,40975,999,11903,.26718886E-3,.3866E-4,0
PROPCUBE 1 (FLORA),2015-058N,2026-07-19T08:39:41.463648,14.89340775,.01327921,64.7717,195.5101,48.5038,312.7380,0,U,40976,999,12105,.14061844E-3,.1399E-4,0
SINOD-D 3,2015-058P,2026-07-19T07:15:23.119488,14.94193569,.01213987,64.7711,175.5179,45.5581,315.5386,0,U,40977,999,11955,.20181872E-3,.2326E-4,0
RAVAN,2016-067B,2026-07-19T15:24:46.047168,15.57780497,.00028288,97.9827,94.0397,196.2712,163.8452,0,U,41849,999,53274,.45310384E-3,.3364E-3,0
CELTEE 1,2016-067C,2026-07-19T14:23:06.147744,15.19964565,.00024352,98.0629,69.3765,104.1559,255.9945,0,U,41850,999,53080,.12003125E-3,.2504E-4,0
OPTICUBE 04,2016-067D,2026-07-19T13:20:02.990688,15.09781432,.00158373,98.0672,54.5257,13.7653,346.4004,0,U,41851,999,53005,.66001937E-4,.997E-5,0
AEROCUBE 8D,2016-067E,2026-07-19T04:24:45.166176,15.24801432,.00043378,98.0634,72.7915,46.8473,313.3125,0,U,41852,999,53094,.15481485E-3,.3758E-4,0
AEROCUBE 8C,2016-067F,2026-07-19T14:19:59.737152,15.25058454,.00038313,98.0511,70.4231,323.3512,36.7461,0,U,41853,999,53100,.15316653E-3,.3746E-4,0
CORVUS BC2,2017-042X,2026-07-19T09:52:15.383424,15.06467590,.00130162,97.4095,0.5175,8.6130,351.5319,0,U,42846,999,49191,.92685383E-4,.131E-4,0
CORVUS BC1,2017-042Y,2026-07-19T09:39:24.004224,15.06633122,.00112255,97.4127,1.3439,344.9562,15.1331,0,U,42847,999,49194,.12561482E-3,.1804E-4,0
MAKERSAT 0,2017-073D,2026-07-18T14:02:09.304224,15.33085965,.0105621,97.4572,82.3624,160.2361,200.3022,0,U,43016,999,47127,.27996E-3,.10616E-3,0
SIRION PATHFINDER-2,2018-099B,2026-07-19T02:09:27.543168,15.14795023,.00088814,97.4232,248.3912,177.9232,182.2039,0,U,43759,999,41745,.1358178E-3,.2458E-4,0
CORVUS BC4,2018-099K,2026-07-19T01:46:20.739360,15.12717787,.00067012,97.4047,242.1222,244.0849,115.9692,0,U,43767,999,41722,.13058229E-3,.2224E-4,0
